[{"OBJECT_NAME":"METOP-C","OBJECT_ID":"2018-087A","EPOCH":"2026-03-09T21:24:06.212448","MEAN_MOTION":14.21497031,"ECCENTRICITY":0.0002203,"INCLINATION":98.6765,"RA_OF_ASC_NODE":130.2612,"ARG_OF_PERICENTER":99.586,"MEAN_ANOMALY":260.5566,"EPHEMERIS_TYPE":0,"CLASSIFICATION_TYPE":"U","NORAD_CAT_ID":43689,"ELEMENT_SET_NO":999,"REV_AT_EPOCH":38072,"BSTAR":8.1967538e-5,"MEAN_MOTION_DOT":1.36e-6,"MEAN_MOTION_DDOT":0},{"OBJECT_NAME":"FENGYUN 1C DEB","OBJECT_ID":"1999-025FBU","EPOCH":"2026-03-01T05:16:44.461056","MEAN_MOTION":14.22949203,"ECCENTRICITY":0.0054435,"INCLINATION":98.9968,"RA_OF_ASC_NODE":324.4262,"ARG_OF_PERICENTER":167.6967,"MEAN_ANOMALY":344.5033,"EPHEMERIS_TYPE":0,"CLASSIFICATION_TYPE":"U","NORAD_CAT_ID":47042,"ELEMENT_SET_NO":999,"REV_AT_EPOCH":63637,"BSTAR":0.00023789,"MEAN_MOTION_DOT":4.97e-6,"MEAN_MOTION_DDOT":0}]
